{
    "links": {
        "self": "http://www.neowsapp.com/rest/v1/neo/3842952?api_key=iIulBulltgU6a56xZRHN4H3l9WmuAYTsLGpBGhQ2"
    },
    "id": "3842952",
    "neo_reference_id": "3842952",
    "name": "(2019 MQ1)",
    "designation": "2019 MQ1",
    "nasa_jpl_url": "http://ssd.jpl.nasa.gov/sbdb.cgi?sstr=3842952",
    "absolute_magnitude_h": 20.9,
    "estimated_diameter": {
        "kilometers": {
            "estimated_diameter_min": 0.1756123185,
            "estimated_diameter_max": 0.3926810818
        },
        "meters": {
            "estimated_diameter_min": 175.6123184804,
            "estimated_diameter_max": 392.6810818086
        },
        "miles": {
            "estimated_diameter_min": 0.1091204019,
            "estimated_diameter_max": 0.2440006365
        },
        "feet": {
            "estimated_diameter_min": 576.1559189633,
            "estimated_diameter_max": 1288.3238004408
        }
    },
    "is_potentially_hazardous_asteroid": false,
    "close_approach_data": [
        {
            "close_approach_date": "2019-07-15",
            "close_approach_date_full": "2019-Jul-15 06:37",
            "epoch_date_close_approach": 1563172620000,
            "relative_velocity": {
                "kilometers_per_second": "27.0020287058",
                "kilometers_per_hour": "97207.3033409257",
                "miles_per_hour": "60400.8380120324"
            },
            "miss_distance": {
                "astronomical": "0.3473693981",
                "lunar": "135.1266958609",
                "kilometers": "51965722.058942047",
                "miles": "32290002.3801203686"
            },
            "orbiting_body": "Earth"
        }
    ],
    "orbital_data": {
        "orbit_id": "2",
        "orbit_determination_date": "2019-07-03 05:49:00",
        "first_observation_date": "2019-06-27",
        "last_observation_date": "2019-07-03",
        "data_arc_in_days": 6,
        "observations_used": 27,
        "orbit_uncertainty": "9",
        "minimum_orbit_intersection": ".14717",
        "jupiter_tisserand_invariant": "4.767",
        "epoch_osculation": "2458663.5",
        "eccentricity": ".5681859089404607",
        "semi_major_axis": "1.315182343354332",
        "inclination": "11.68664893531634",
        "ascending_node_longitude": "262.0744414152368",
        "orbital_period": "550.9058466273609",
        "perihelion_distance": ".5679142681731056",
        "perihelion_argument": "148.7225617449392",
        "aphelion_distance": "2.062450418535558",
        "perihelion_time": "2458732.998157453007",
        "mean_anomaly": "314.5850950098813",
        "mean_motion": ".6534691947887571",
        "equinox": "J2000",
        "orbit_class": {
            "orbit_class_type": "APO",
            "orbit_class_description": "Near-Earth asteroid orbits which cross the Earth’s orbit similar to that of 1862 Apollo",
            "orbit_class_range": "a (semi-major axis) > 1.0 AU; q (perihelion) < 1.017 AU"
        }
    },
    "is_sentry_object": false
}